STARLINK-31598          
1 59263U 24050K   26068.62846355 -.00000080  00000+0  94387-5 0  9991
2 59263  53.1619 181.6524 0001335  82.4699 277.6453 15.30183586110533
COSMOS 2588             
1 64095U 25109A   26068.81179522  .00009169  00000+0  32611-3 0  9998
2 64095  72.9704  73.5401 0005019 308.6780  51.3966 15.29122656 44425
